[{"OBJECT_NAME":"CZ-2D R/B","OBJECT_ID":"2005-024B","EPOCH":"2026-03-05T14:29:38.793408","MEAN_MOTION":15.59717554,"ECCENTRICITY":0.00064295,"INCLINATION":97.3595,"RA_OF_ASC_NODE":79.6011,"ARG_OF_PERICENTER":57.0193,"MEAN_ANOMALY":303.1681,"EPHEMERIS_TYPE":0,"CLASSIFICATION_TYPE":"U","NORAD_CAT_ID":28738,"ELEMENT_SET_NO":999,"REV_AT_EPOCH":13914,"BSTAR":0.00057191284,"MEAN_MOTION_DOT":0.00045815,"MEAN_MOTION_DDOT":0},{"OBJECT_NAME":"ALOS (DAICHI)","OBJECT_ID":"2006-002A","EPOCH":"2026-03-05T14:56:27.153600","MEAN_MOTION":14.69795053,"ECCENTRICITY":0.000108,"INCLINATION":98.1214,"RA_OF_ASC_NODE":20.5984,"ARG_OF_PERICENTER":54.0607,"MEAN_ANOMALY":306.0699,"EPHEMERIS_TYPE":0,"CLASSIFICATION_TYPE":"U","NORAD_CAT_ID":28931,"ELEMENT_SET_NO":999,"REV_AT_EPOCH":7288,"BSTAR":0.0003774698,"MEAN_MOTION_DOT":2.204e-5,"MEAN_MOTION_DDOT":0},{"OBJECT_NAME":"H-2A R/B","OBJECT_ID":"2006-002B","EPOCH":"2026-03-05T09:15:42.422688","MEAN_MOTION":15.16308743,"ECCENTRICITY":0.00518422,"INCLINATION":98.2403,"RA_OF_ASC_NODE":211.04,"ARG_OF_PERICENTER":255.7586,"MEAN_ANOMALY":103.7883,"EPHEMERIS_TYPE":0,"CLASSIFICATION_TYPE":"U","NORAD_CAT_ID":28932,"ELEMENT_SET_NO":999,"REV_AT_EPOCH":9378,"BSTAR":0.00058981993,"MEAN_MOTION_DOT":0.00011754,"MEAN_MOTION_DDOT":0},{"OBJECT_NAME":"RESURS-DK 1","OBJECT_ID":"2006-021A","EPOCH":"2026-03-05T13:37:54.154560","MEAN_MOTION":15.12709428,"ECCENTRICITY":0.00023313,"INCLINATION":69.9307,"RA_OF_ASC_NODE":247.6855,"ARG_OF_PERICENTER":164.525,"MEAN_ANOMALY":195.5987,"EPHEMERIS_TYPE":0,"CLASSIFICATION_TYPE":"U","NORAD_CAT_ID":29228,"ELEMENT_SET_NO":999,"REV_AT_EPOCH":8690,"BSTAR":0.00022211789,"MEAN_MOTION_DOT":3.793e-5,"MEAN_MOTION_DDOT":0},{"OBJECT_NAME":"CZ-4B R/B","OBJECT_ID":"2006-046C","EPOCH":"2026-03-05T14:02:45.286368","MEAN_MOTION":15.168546,"ECCENTRICITY":0.00316321,"INCLINATION":97.5598,"RA_OF_ASC_NODE":109.5048,"ARG_OF_PERICENTER":282.2246,"MEAN_ANOMALY":77.5445,"EPHEMERIS_TYPE":0,"CLASSIFICATION_TYPE":"U","NORAD_CAT_ID":29507,"ELEMENT_SET_NO":999,"REV_AT_EPOCH":5942,"BSTAR":0.00032104627,"MEAN_MOTION_DOT":6.329e-5,"MEAN_MOTION_DDOT":0},{"OBJECT_NAME":"CZ-2C R/B","OBJECT_ID":"2007-010B","EPOCH":"2026-03-05T05:12:35.624736","MEAN_MOTION":14.20244419,"ECCENTRICITY":0.00580115,"INCLINATION":98.3977,"RA_OF_ASC_NODE":177.7202,"ARG_OF_PERICENTER":307.8622,"MEAN_ANOMALY":51.7316,"EPHEMERIS_TYPE":0,"CLASSIFICATION_TYPE":"U","NORAD_CAT_ID":31114,"ELEMENT_SET_NO":999,"REV_AT_EPOCH":97908,"BSTAR":0.00010545817,"MEAN_MOTION_DOT":1.88e-6,"MEAN_MOTION_DDOT":0},{"OBJECT_NAME":"COSMO-SKYMED 1","OBJECT_ID":"2007-023A","EPOCH":"2026-03-05T14:03:34.491168","MEAN_MOTION":14.96495609,"ECCENTRICITY":8.692e-5,"INCLINATION":97.8862,"RA_OF_ASC_NODE":255.5852,"ARG_OF_PERICENTER":97.014,"MEAN_ANOMALY":263.118,"EPHEMERIS_TYPE":0,"CLASSIFICATION_TYPE":"U","NORAD_CAT_ID":31598,"ELEMENT_SET_NO":999,"REV_AT_EPOCH":1429,"BSTAR":0.00040127277,"MEAN_MOTION_DOT":4.499e-5,"MEAN_MOTION_DDOT":0},{"OBJECT_NAME":"COSMOS 2428","OBJECT_ID":"2007-029A","EPOCH":"2026-03-05T13:41:05.109792","MEAN_MOTION":14.12945032,"ECCENTRICITY":0.00089047,"INCLINATION":70.9426,"RA_OF_ASC_NODE":211.9896,"ARG_OF_PERICENTER":281.4201,"MEAN_ANOMALY":78.592,"EPHEMERIS_TYPE":0,"CLASSIFICATION_TYPE":"U","NORAD_CAT_ID":31792,"ELEMENT_SET_NO":999,"REV_AT_EPOCH":96351,"BSTAR":5.9211804e-5,"MEAN_MOTION_DOT":6.2e-7,"MEAN_MOTION_DDOT":0},{"OBJECT_NAME":"SL-16 R/B","OBJECT_ID":"2007-029B","EPOCH":"2026-03-05T14:16:10.504128","MEAN_MOTION":14.14833545,"ECCENTRICITY":0.0002354,"INCLINATION":70.9757,"RA_OF_ASC_NODE":180.9922,"ARG_OF_PERICENTER":277.2735,"MEAN_ANOMALY":93.5767,"EPHEMERIS_TYPE":0,"CLASSIFICATION_TYPE":"U","NORAD_CAT_ID":31793,"ELEMENT_SET_NO":999,"REV_AT_EPOCH":96479,"BSTAR":-2.2824553e-5,"MEAN_MOTION_DOT":-9.2e-7,"MEAN_MOTION_DDOT":0},{"OBJECT_NAME":"KORONAS-FOTON","OBJECT_ID":"2009-003A","EPOCH":"2026-03-05T14:44:57.535584","MEAN_MOTION":15.43212499,"ECCENTRICITY":0.00109352,"INCLINATION":82.4277,"RA_OF_ASC_NODE":280.1155,"ARG_OF_PERICENTER":163.4011,"MEAN_ANOMALY":196.7596,"EPHEMERIS_TYPE":0,"CLASSIFICATION_TYPE":"U","NORAD_CAT_ID":33504,"ELEMENT_SET_NO":999,"REV_AT_EPOCH":94511,"BSTAR":0.00032327914,"MEAN_MOTION_DOT":0.00014419,"MEAN_MOTION_DDOT":0},{"OBJECT_NAME":"CZ-2C R/B","OBJECT_ID":"2011-030B","EPOCH":"2026-03-05T11:56:16.929024","MEAN_MOTION":14.81203055,"ECCENTRICITY":0.00528492,"INCLINATION":97.8539,"RA_OF_ASC_NODE":21.8445,"ARG_OF_PERICENTER":5.7768,"MEAN_ANOMALY":88.7096,"EPHEMERIS_TYPE":0,"CLASSIFICATION_TYPE":"U","NORAD_CAT_ID":37731,"ELEMENT_SET_NO":999,"REV_AT_EPOCH":78947,"BSTAR":0.00034167591,"MEAN_MOTION_DOT":2.669e-5,"MEAN_MOTION_DDOT":0},{"OBJECT_NAME":"H-2A R/B","OBJECT_ID":"2012-025E","EPOCH":"2026-03-05T12:17:52.681920","MEAN_MOTION":14.95123331,"ECCENTRICITY":0.00436302,"INCLINATION":98.4723,"RA_OF_ASC_NODE":31.2239,"ARG_OF_PERICENTER":328.2922,"MEAN_ANOMALY":31.5669,"EPHEMERIS_TYPE":0,"CLASSIFICATION_TYPE":"U","NORAD_CAT_ID":38341,"ELEMENT_SET_NO":999,"REV_AT_EPOCH":74759,"BSTAR":0.00051793344,"MEAN_MOTION_DOT":5.721e-5,"MEAN_MOTION_DDOT":0},{"OBJECT_NAME":"SHIJIAN-16 (SJ-16)","OBJECT_ID":"2013-057A","EPOCH":"2026-03-05T16:10:08.665824","MEAN_MOTION":14.92318921,"ECCENTRICITY":0.00156522,"INCLINATION":74.9733,"RA_OF_ASC_NODE":192.6897,"ARG_OF_PERICENTER":122.9474,"MEAN_ANOMALY":237.3222,"EPHEMERIS_TYPE":0,"CLASSIFICATION_TYPE":"U","NORAD_CAT_ID":39358,"ELEMENT_SET_NO":999,"REV_AT_EPOCH":67090,"BSTAR":0.0001281416,"MEAN_MOTION_DOT":1.283e-5,"MEAN_MOTION_DDOT":0},{"OBJECT_NAME":"SL-4 R/B","OBJECT_ID":"2014-021B","EPOCH":"2026-03-05T05:07:40.513440","MEAN_MOTION":15.39008154,"ECCENTRICITY":0.00978834,"INCLINATION":51.6094,"RA_OF_ASC_NODE":359.1115,"ARG_OF_PERICENTER":86.6279,"MEAN_ANOMALY":274.5896,"EPHEMERIS_TYPE":0,"CLASSIFICATION_TYPE":"U","NORAD_CAT_ID":39679,"ELEMENT_SET_NO":999,"REV_AT_EPOCH":65558,"BSTAR":0.00043144492,"MEAN_MOTION_DOT":0.00019612,"MEAN_MOTION_DDOT":0},{"OBJECT_NAME":"ALOS-2","OBJECT_ID":"2014-029A","EPOCH":"2026-03-05T14:14:19.383360","MEAN_MOTION":14.79483506,"ECCENTRICITY":0.00014494,"INCLINATION":97.9203,"RA_OF_ASC_NODE":163.2501,"ARG_OF_PERICENTER":98.2649,"MEAN_ANOMALY":261.8727,"EPHEMERIS_TYPE":0,"CLASSIFICATION_TYPE":"U","NORAD_CAT_ID":39766,"ELEMENT_SET_NO":999,"REV_AT_EPOCH":63626,"BSTAR":0.00019427908,"MEAN_MOTION_DOT":1.4e-5,"MEAN_MOTION_DDOT":0},{"OBJECT_NAME":"YAOGAN-29","OBJECT_ID":"2015-069A","EPOCH":"2026-03-05T14:40:07.673088","MEAN_MOTION":14.82988954,"ECCENTRICITY":0.0002146,"INCLINATION":98.0142,"RA_OF_ASC_NODE":93.0293,"ARG_OF_PERICENTER":41.9726,"MEAN_ANOMALY":318.1652,"EPHEMERIS_TYPE":0,"CLASSIFICATION_TYPE":"U","NORAD_CAT_ID":41038,"ELEMENT_SET_NO":999,"REV_AT_EPOCH":55527,"BSTAR":4.7241927e-5,"MEAN_MOTION_DOT":3.3e-6,"MEAN_MOTION_DDOT":0},{"OBJECT_NAME":"ASTRO-H (HITOMI)","OBJECT_ID":"2016-012A","EPOCH":"2026-03-05T06:30:37.422144","MEAN_MOTION":15.0996782,"ECCENTRICITY":0.0009998,"INCLINATION":31.0008,"RA_OF_ASC_NODE":25.0587,"ARG_OF_PERICENTER":287.1051,"MEAN_ANOMALY":72.8492,"EPHEMERIS_TYPE":0,"CLASSIFICATION_TYPE":"U","NORAD_CAT_ID":41337,"ELEMENT_SET_NO":999,"REV_AT_EPOCH":55156,"BSTAR":0.00028587552,"MEAN_MOTION_DOT":4.856e-5,"MEAN_MOTION_DDOT":0}]
