CZ-2D R/B               
1 28738U 05024B   26064.60392122  .00045815  00000+0  57191-3 0  9990
2 28738  97.3595  79.6011 0006429  57.0193 303.1681 15.59717554139147
ALOS (DAICHI)           
1 28931U 06002A   26064.62253650  .00002204  00000+0  37747-3 0  9996
2 28931  98.1214  20.5984 0001080  54.0607 306.0699 14.69795053 72886
H-2A R/B                
1 28932U 06002B   26064.38590767  .00011754  00000+0  58982-3 0  9997
2 28932  98.2403 211.0400 0051842 255.7586 103.7883 15.16308743 93783
RESURS-DK 1             
1 29228U 06021A   26064.56798790  .00003793  00000+0  22212-3 0  9994
2 29228  69.9307 247.6855 0002331 164.5250 195.5987 15.12709428 86904
CZ-4B R/B               
1 29507U 06046C   26064.58524637  .00006329  00000+0  32105-3 0  9990
2 29507  97.5598 109.5048 0031632 282.2246  77.5445 15.16854600 59424
CZ-2C R/B               
1 31114U 07010B   26064.21707899  .00000188  00000+0  10546-3 0  9994
2 31114  98.3977 177.7202 0058011 307.8622  51.7316 14.20244419979081
COSMO-SKYMED 1          
1 31598U 07023A   26064.58581587  .00004499  00000+0  40127-3 0  9995
2 31598  97.8862 255.5852 0000869  97.0140 263.1180 14.96495609 14294
COSMOS 2428             
1 31792U 07029A   26064.57019803  .00000062  00000+0  59212-4 0  9991
2 31792  70.9426 211.9896 0008904 281.4201  78.5920 14.12945032963513
SL-16 R/B               
1 31793U 07029B   26064.59456602 -.00000092  00000+0 -22825-4 0  9991
2 31793  70.9757 180.9922 0002354 277.2735  93.5767 14.14833545964798
KORONAS-FOTON           
1 33504U 09003A   26064.61455481  .00014419  00000+0  32328-3 0  9998
2 33504  82.4277 280.1155 0010935 163.4011 196.7596 15.43212499945116
CZ-2C R/B               
1 37731U 11030B   26064.49741816  .00002669  00000+0  34168-3 0  9991
2 37731  97.8539  21.8445 0052849   5.7768  88.7096 14.81203055789471
H-2A R/B                
1 38341U 12025E   26064.51241530  .00005721  00000+0  51793-3 0  9990
2 38341  98.4723  31.2239 0043630 328.2922  31.5669 14.95123331747592
SHIJIAN-16 (SJ-16)      
1 39358U 13057A   26064.67371141  .00001283  00000+0  12814-3 0  9994
2 39358  74.9733 192.6897 0015652 122.9474 237.3222 14.92318921670906
SL-4 R/B                
1 39679U 14021B   26064.21366335  .00019612  00000+0  43144-3 0  9996
2 39679  51.6094 359.1115 0097883  86.6279 274.5896 15.39008154655585
ALOS-2                  
1 39766U 14029A   26064.59327990  .00001400  00000+0  19428-3 0  9990
2 39766  97.9203 163.2501 0001449  98.2649 261.8727 14.79483506636260
YAOGAN-29               
1 41038U 15069A   26064.61119992  .00000330  00000+0  47242-4 0  9991
2 41038  98.0142  93.0293 0002146  41.9726 318.1652 14.82988954555278
ASTRO-H (HITOMI)        
1 41337U 16012A   26064.27126646  .00004856  00000+0  28588-3 0  9996
2 41337  31.0008  25.0587 0009998 287.1051  72.8492 15.09967820551569
